BY70-2                  
1 45857U 20042B   24147.59933460  .00097880  00000+0  37584-2 0  9994
2 45857  97.9071 239.8035 0010379 262.8368  97.1689 15.25998456211254
SALSAT                  
1 46495U 20068K   24147.44945091  .00007550  00000+0  43227-3 0  9995
2 46495  97.8154 106.2022 0014835  35.5198 324.7017 15.12840686201029
UVSQ-SAT                
1 47438U 21006AB  24147.62704899  .00045732  00000+0  93890-3 0  9990
2 47438  97.3270 207.8523 0005151 275.7137  84.3525 15.45870795185403
LEDSAT                  
1 49069U 21073D   24147.19733134  .00016382  00000+0  67273-3 0  9997
2 49069  97.4380 218.4862 0018869   5.2820 354.8612 15.24119829153102
XW-3 (CAS-9)            
1 50466U 21131B   24147.58026233  .00000986  00000+0  32963-3 0  9994
2 50466  98.5278 232.7507 0004323 175.1522 184.9708 14.39621500126897
TEVEL-3                 
1 50988U 22002E   24147.57841977  .00125399  00000+0  14356-2 0  9991
2 50988  97.3781 222.4488 0002027 165.8776 194.2538 15.61712948131672
TEVEL-8                 
1 50989U 22002F   24147.55382164  .00128105  00000+0  14769-2 0  9994
2 50989  97.3803 222.5149 0002214 162.5328 197.6006 15.61520791131667
TEVEL-5                 
1 50998U 22002Q   24147.58593811  .00167747  00000+0  15441-2 0  9993
2 50998  97.3768 223.7351 0001799 199.4092 160.7101 15.67125773131764
TEVEL-6                 
1 50999U 22002R   24147.46527888  .00167777  00000+0  15617-2 0  9990
2 50999  97.3762 223.5718 0001797 197.1129 163.0071 15.66847785131741
TEVEL-1                 
1 51013U 22002AF  24147.54301607  .00126443  00000+0  14602-2 0  9994
2 51013  97.3770 222.2720 0001796 163.3782 196.7534 15.61483098131662
TEVEL-7                 
1 51062U 22002CG  24147.47779337  .00125286  00000+0  14356-2 0  9999
2 51062  97.3787 222.4112 0001771 165.1298 195.0012 15.61690312131657
TEVEL-4                 
1 51063U 22002CH  24147.58106017  .00121206  00000+0  14154-2 0  9995
2 51063  97.3793 222.4173 0001752 159.5950 200.5378 15.61210280131663
TEVEL-2                 
1 51069U 22002CP  24147.57615819  .00125589  00000+0  14354-2 0  9995
2 51069  97.3778 222.4145 0001912 166.9469 193.1838 15.61755583131675
GREENCUBE               
1 53106U 22080B   24143.44283041 -.00000003  00000+0  00000+0 0  9999
2 53106  70.1379 201.4638 0007708 112.7350 247.4125  6.42557493 43613
MIET-AIS (RS28S)        
1 53377U 22096H   24146.76533970  .00503222  10372-3  13583-2 0  9993
2 53377  97.3833  67.4662 0007810 143.9906 216.1897 15.94259021100923
KAI-1 (RS26S)           
1 53378U 22096J   24147.57079665  .00093167  00000+0  89662-3 0  9997
2 53378  97.3967  65.3141 0005014 108.3106 251.8700 15.66241738100847
ISOI (RS19S)            
1 53381U 22096M   24147.59879736  .00720886  24546-3  13123-2 0  9998
2 53381  97.3800  69.4178 0008720 157.7965 202.3694 16.01409314101121
SIREN (RS30S)           
1 53384U 22096Q   24146.87739652  .00209916  00000+0  11664-2 0  9992
2 53384  97.3889  66.6045 0006369 135.2881 224.8900 15.78893601100877
CAS-5A (FO-118)         
1 54684U 22167C   24147.54640206  .00025569  00000+0  90771-3 0  9993
2 54684  97.6037 291.8847 0010684 218.3714 141.6767 15.28977197 80999
STRATOSAT-TK 1 (RS52S)  
1 57167U 23091B   24147.58049027  .00013199  00000+0  77527-3 0  9997
2 57167  97.6118 200.7192 0015901 188.4872 171.6091 15.11729327 50294
UMKA 1 (RS40S)          
1 57172U 23091G   24147.55942160  .00006677  00000+0  44500-3 0  9998
2 57172  97.6125 199.8259 0016885 190.8640 169.2225 15.07299067 50236
CUBESX-HSE 3 (RS42S)    
1 57178U 23091N   24147.60021733  .00007935  00000+0  51020-3 0  9997
2 57178  97.6163 200.2386 0017663 184.0162 176.0927 15.08550919 50255
MONITOR-4 (RS57S)       
1 57182U 23091S   24147.58125647  .00007073  00000+0  46074-3 0  9994
2 57182  97.6142 200.0595 0017961 186.0590 174.0424 15.08106464 50246
MONITOR-2 (RS39S)       
1 57184U 23091U   24147.59139659  .00004687  00000+0  31270-3 0  9995
2 57184  97.6154 200.2218 0014502 178.1425 181.9859 15.07445857 50253
SVYATOBOR 1 (RS60S)     
1 57187U 23091X   24147.56883191  .00007595  00000+0  48481-3 0  9995
2 57187  97.6154 200.5638 0014104 176.5664 183.5664 15.08877106 50271
VIZARD-METEO (RS38S)    
1 57189U 23091Z   24147.60991450  .00008574  00000+0  52774-3 0  9998
2 57189  97.6152 200.9381 0013187 172.5449 187.5978 15.10183615 50301
NANOZOND 1 (RS49S)      
1 57190U 23091AA  24147.58010490  .00012035  00000+0  69316-3 0  9990
2 57190  97.6119 201.3261 0011650 177.4715 182.6577 15.12510871 50335
POLYTECH-UNIVERSE 3 (R*)
1 57191U 23091AB  24147.59490760  .00004726  00000+0  31538-3 0  9997
2 57191  97.6122 199.9220 0019400 196.6225 163.4369 15.07369542 50244
UTMN 2 (RS27S)          
1 57203U 23091AP  24147.59411055  .00007601  00000+0  47414-3 0  9996
2 57203  97.6148 200.8032 0013506 173.1928 186.9487 15.09730003 50292
ARCCUBE 1 (RS25S)       
1 57205U 23091AR  24147.57265002  .00014560  00000+0  81460-3 0  9996
2 57205  97.6092 201.3994 0011761 179.0021 181.1236 15.13506506 50344
KUZGTU 1 (RS47S)        
1 57217U 23091AV  24147.60690219  .00007651  00000+0  49387-3 0  9990
2 57217  97.6139 200.1226 0017506 185.4359 174.6682 15.08423509 50259
HADES-D (SO-121)        
1 58567U 23174CY  24147.19444266  .00043294  00000+0  15918-2 0  9999
2 58567  97.4549 222.8896 0011192 298.3851  61.6259 15.27702404 30428
